{
  "type": "FeatureCollection",
  "features": [
    {
      "type": "Feature",
      "properties": {
        "norad_id": 28054,
        "name": "DMSP 5D-3 F16 (USA 172)",
        "group": "weather",
        "lat": 55.62077232486615,
        "lon": -167.7056320196207,
        "alt_km": 842.9642676422345,
        "timestamp": "2025-12-07T11:27:49.629721+00:00",
        "meta_object_name": "DMSP 5D-3 F16 (USA 172)",
        "meta_object_id": "2003-048A",
        "meta_epoch": "2025-12-06T23:16:51.413664",
        "meta_mean_motion": 14.14421071,
        "meta_eccentricity": 0.00067336,
        "meta_inclination": 99.0049,
        "meta_ra_of_asc_node": 358.3815,
        "meta_arg_of_pericenter": 338.6482,
        "meta_mean_anomaly": 81.2546,
        "meta_ephemeris_type": 0,
        "meta_classification_type": "U",
        "meta_norad_cat_id": 28054,
        "meta_element_set_no": 999,
        "meta_rev_at_epoch": 14231,
        "meta_bstar": 0.00016084776,
        "meta_mean_motion_dot": 2.62e-06,
        "meta_mean_motion_ddot": 0,
        "tle_line1": "1 28054U 03048A   25340.97003951  .00000262  00000+0  16085-3 0  9994",
        "tle_line2": "2 28054  99.0049 358.3815 0006733 338.6482  81.2546 14.14421071142310"
      },
      "geometry": {
        "type": "Point",
        "coordinates": [
          -167.7056320196207,
          55.62077232486615
        ]
      }
    },
    {
      "type": "Feature",
      "properties": {
        "norad_id": 28912,
        "name": "METEOSAT-9 (MSG-2)",
        "group": "weather",
        "lat": -7.588489610210711,
        "lon": -66.20499409195737,
        "alt_km": 35775.72564203658,
        "timestamp": "2025-12-07T11:27:49.629773+00:00",
        "meta_object_name": "METEOSAT-9 (MSG-2)",
        "meta_object_id": "2005-049B",
        "meta_epoch": "2025-12-06T20:43:46.094016",
        "meta_mean_motion": 1.0027315,
        "meta_eccentricity": 0.00039617,
        "meta_inclination": 8.926,
        "meta_ra_of_asc_node": 56.0299,
        "meta_arg_of_pericenter": 188.459,
        "meta_mean_anomaly": 187.9596,
        "meta_ephemeris_type": 0,
        "meta_classification_type": "U",
        "meta_norad_cat_id": 28912,
        "meta_element_set_no": 999,
        "meta_rev_at_epoch": 507,
        "meta_bstar": 0,
        "meta_mean_motion_dot": 1.25e-06,
        "meta_mean_motion_ddot": 0,
        "tle_line1": "1 28912U 05049B   25340.86372794  .00000125  00000+0  00000+0 0  9996",
        "tle_line2": "2 28912   8.9260  56.0299 0003961 188.4590 187.9596  1.00273150  5070"
      },
      "geometry": {
        "type": "Point",
        "coordinates": [
          -66.20499409195737,
          -7.588489610210711
        ]
      }
    },
    {
      "type": "Feature",
      "properties": {
        "norad_id": 29522,
        "name": "DMSP 5D-3 F17 (USA 191)",
        "group": "weather",
        "lat": 53.38226551717946,
        "lon": -24.969573529720712,
        "alt_km": 844.1631511309251,
        "timestamp": "2025-12-07T11:27:49.629792+00:00",
        "meta_object_name": "DMSP 5D-3 F17 (USA 191)",
        "meta_object_id": "2006-050A",
        "meta_epoch": "2025-12-06T23:19:39.084960",
        "meta_mean_motion": 14.14915873,
        "meta_eccentricity": 0.00092405,
        "meta_inclination": 98.7393,
        "meta_ra_of_asc_node": 346.4811,
        "meta_arg_of_pericenter": 242.6623,
        "meta_mean_anomaly": 117.3611,
        "meta_ephemeris_type": 0,
        "meta_classification_type": "U",
        "meta_norad_cat_id": 29522,
        "meta_element_set_no": 999,
        "meta_rev_at_epoch": 98523,
        "meta_bstar": 0.00018634193,
        "meta_mean_motion_dot": 3.17e-06,
        "meta_mean_motion_ddot": 0,
        "tle_line1": "1 29522U 06050A   25340.97198015  .00000317  00000+0  18634-3 0  9990",
        "tle_line2": "2 29522  98.7393 346.4811 0009240 242.6623 117.3611 14.14915873985238"
      },
      "geometry": {
        "type": "Point",
        "coordinates": [
          -24.969573529720712,
          53.38226551717946
        ]
      }
    },
    {
      "type": "Feature",
      "properties": {
        "norad_id": 32958,
        "name": "FENGYUN 3A",
        "group": "weather",
        "lat": 40.888090686091346,
        "lon": -86.47561108841616,
        "alt_km": 822.1412458049235,
        "timestamp": "2025-12-07T11:27:49.629807+00:00",
        "meta_object_name": "FENGYUN 3A",
        "meta_object_id": "2008-026A",
        "meta_epoch": "2025-12-06T20:02:39.189120",
        "meta_mean_motion": 14.19511742,
        "meta_eccentricity": 0.00081758,
        "meta_inclination": 98.6689,
        "meta_ra_of_asc_node": 280.4865,
        "meta_arg_of_pericenter": 328.837,
        "meta_mean_anomaly": 31.2321,
        "meta_ephemeris_type": 0,
        "meta_classification_type": "U",
        "meta_norad_cat_id": 32958,
        "meta_element_set_no": 999,
        "meta_rev_at_epoch": 90811,
        "meta_bstar": 0.00013539268,
        "meta_mean_motion_dot": 2.42e-06,
        "meta_mean_motion_ddot": 0,
        "tle_line1": "1 32958U 08026A   25340.83517580  .00000242  00000+0  13539-3 0  9995",
        "tle_line2": "2 32958  98.6689 280.4865 0008175 328.8370  31.2321 14.19511742908116"
      },
      "geometry": {
        "type": "Point",
        "coordinates": [
          -86.47561108841616,
          40.888090686091346
        ]
      }
    },
    {
      "type": "Feature",
      "properties": {
        "norad_id": 35491,
        "name": "GOES 14",
        "group": "weather",
        "lat": 0.9748753901708618,
        "lon": 140.08482735217868,
        "alt_km": 35788.38735283664,
        "timestamp": "2025-12-07T11:27:49.629822+00:00",
        "meta_object_name": "GOES 14",
        "meta_object_id": "2009-033A",
        "meta_epoch": "2025-12-06T21:42:40.451904",
        "meta_mean_motion": 1.00272901,
        "meta_eccentricity": 0.00041556,
        "meta_inclination": 1.1835,
        "meta_ra_of_asc_node": 85.4757,
        "meta_arg_of_pericenter": 153.443,
        "meta_mean_anomaly": 54.3698,
        "meta_ephemeris_type": 0,
        "meta_classification_type": "U",
        "meta_norad_cat_id": 35491,
        "meta_element_set_no": 999,
        "meta_rev_at_epoch": 466,
        "meta_bstar": 0,
        "meta_mean_motion_dot": -6.3e-07,
        "meta_mean_motion_ddot": 0,
        "tle_line1": "1 35491U 09033A   25340.90463486 -.00000063  00000+0  00000+0 0  9999",
        "tle_line2": "2 35491   1.1835  85.4757 0004155 153.4430  54.3698  1.00272901  4666"
      },
      "geometry": {
        "type": "Point",
        "coordinates": [
          140.08482735217868,
          0.9748753901708618
        ]
      }
    },
    {
      "type": "Feature",
      "properties": {
        "norad_id": 35951,
        "name": "DMSP 5D-3 F18 (USA 210)",
        "group": "weather",
        "lat": -73.09075558326646,
        "lon": -11.135975360595658,
        "alt_km": 858.1058760391079,
        "timestamp": "2025-12-07T11:27:49.629835+00:00",
        "meta_object_name": "DMSP 5D-3 F18 (USA 210)",
        "meta_object_id": "2009-057A",
        "meta_epoch": "2025-12-06T22:14:31.251840",
        "meta_mean_motion": 14.14763767,
        "meta_eccentricity": 0.00121244,
        "meta_inclination": 98.8827,
        "meta_ra_of_asc_node": 317.3568,
        "meta_arg_of_pericenter": 77.8531,
        "meta_mean_anomaly": 282.4,
        "meta_ephemeris_type": 0,
        "meta_classification_type": "U",
        "meta_norad_cat_id": 35951,
        "meta_element_set_no": 999,
        "meta_rev_at_epoch": 83240,
        "meta_bstar": 0.00023718194,
        "meta_mean_motion_dot": 4.13e-06,
        "meta_mean_motion_ddot": 0,
        "tle_line1": "1 35951U 09057A   25340.92675060  .00000413  00000+0  23718-3 0  9994",
        "tle_line2": "2 35951  98.8827 317.3568 0012124  77.8531 282.4000 14.14763767832400"
      },
      "geometry": {
        "type": "Point",
        "coordinates": [
          -11.135975360595658,
          -73.09075558326646
        ]
      }
    },
    {
      "type": "Feature",
      "properties": {
        "norad_id": 36411,
        "name": "EWS-G2 (GOES 15)",
        "group": "weather",
        "lat": -0.5678210638639131,
        "lon": -50.0429288233294,
        "alt_km": 35771.17206891952,
        "timestamp": "2025-12-07T11:27:49.629849+00:00",
        "meta_object_name": "EWS-G2 (GOES 15)",
        "meta_object_id": "2010-008A",
        "meta_epoch": "2025-12-06T15:40:13.705824",
        "meta_mean_motion": 1.00268345,
        "meta_eccentricity": 0.000602,
        "meta_inclination": 0.7984,
        "meta_ra_of_asc_node": 86.0287,
        "meta_arg_of_pericenter": 172.4317,
        "meta_mean_anomaly": 113.7488,
        "meta_ephemeris_type": 0,
        "meta_classification_type": "U",
        "meta_norad_cat_id": 36411,
        "meta_element_set_no": 999,
        "meta_rev_at_epoch": 5770,
        "meta_bstar": 0,
        "meta_mean_motion_dot": 4.4e-07,
        "meta_mean_motion_ddot": 0,
        "tle_line1": "1 36411U 10008A   25340.65293641  .00000044  00000+0  00000+0 0  9990",
        "tle_line2": "2 36411   0.7984  86.0287 0006020 172.4317 113.7488  1.00268345 57709"
      },
      "geometry": {
        "type": "Point",
        "coordinates": [
          -50.0429288233294,
          -0.5678210638639131
        ]
      }
    }
  ]
}